NORAD_CAT_ID,OBJECT_NAME,OBJECT_TYPE,EPOCH,MEAN_MOTION,ECCENTRICITY,INCLINATION,RA_OF_ASC_NODE,ARG_OF_PERICENTER,MEAN_ANOMALY,BSTAR,MEAN_MOTION_DOT,MEAN_MOTION_DDOT,TLE_LINE0,TLE_LINE1,TLE_LINE2,SEMIMAJOR_AXIS,PERIOD,APOGEE,PERIGEE,DECAYED
53530.0,STARLINK-4482,PAYLOAD,2023-05-02 06:42:31,15.08843784,0.0001537,53.2182,73.6793,107.6163,252.4997,2.255e-05,7.1e-07,0.0,0 STARLINK-4482,1 53530U 22101D   23122.27953286  .00000071  00000-0  22550-4 0  9990,2 53530  53.2182  73.6793 0001537 107.6163 252.4997 15.08843784 38797,6917.869,95.437,540.797,538.671,0.0
53530.0,STARLINK-4482,PAYLOAD,2023-05-03 03:22:32,15.08846779,0.0001247,53.2185,69.8173,97.3847,262.7287,3.2152e-05,2.24e-06,0.0,0 STARLINK-4482,1 53530U 22101D   23123.14065004  .00000224  00000-0  32152-4 0  9998,2 53530  53.2185  69.8173 0001247  97.3847 262.7287 15.08846779 38929,6917.86,95.437,540.587,538.862,0.0
53530.0,STARLINK-4482,PAYLOAD,2023-05-03 20:51:47,15.08836987,0.0001194,53.219,66.5457,96.872,263.2408,-6.2068e-05,-1.275e-05,0.0,0 STARLINK-4482,1 53530U 22101D   23123.86930114 -.00001275  00000-0 -62068-4 0  9998,2 53530  53.2190  66.5457 0001194  96.8720 263.2408 15.08836987 39033,6917.89,95.438,540.581,538.929,0.0
53530.0,STARLINK-4482,PAYLOAD,2023-05-04 04:48:43,15.08837956,0.0001188,53.2186,65.0597,95.8919,264.2209,-4.9006e-05,-1.068e-05,0.0,0 STARLINK-4482,1 53530U 22101D   23124.20050067 -.00001068  00000-0 -49006-4 0  9994,2 53530  53.2186  65.0597 0001188  95.8919 264.2209 15.08837956 39081,6917.887,95.438,540.573,538.93,0.0
53530.0,STARLINK-4482,PAYLOAD,2023-05-04 20:42:34,15.08825402,0.0001269,53.219,62.0866,112.9105,247.2021,0.00010798,1.43e-05,0.0,0 STARLINK-4482,1 53530U 22101D   23124.86290337  .00001430  00000-0  10798-3 0  9998,2 53530  53.2190  62.0866 0001269 112.9105 247.2021 15.08825402 39187,6917.925,95.438,540.668,538.912,0.0
53530.0,STARLINK-4482,PAYLOAD,2023-05-05 04:39:29,15.088495,0.0001252,53.2193,60.6002,114.1021,246.0102,2.6827e-05,1.39e-06,0.0,0 STARLINK-4482,1 53530U 22101D   23125.19409324  .00000139  00000-0  26827-4 0  9999,2 53530  53.2193  60.6002 0001252 114.1021 246.0102 15.08849500 39237,6917.851,95.437,540.582,538.85,0.0
53530.0,STARLINK-4482,PAYLOAD,2023-05-06 02:54:54,15.08834755,0.0001249,53.2195,56.4369,101.464,258.6493,0.00012665,1.728e-05,0.0,0 STARLINK-4482,1 53530U 22101D   23126.12146243  .00001728  00000-0  12665-3 0  9990,2 53530  53.2195  56.4369 0001249 101.4640 258.6493 15.08834755 39373,6917.896,95.438,540.625,538.897,0.0
53530.0,STARLINK-4482,PAYLOAD,2023-05-06 04:30:17,15.08840879,0.0001437,53.2197,56.1394,96.8284,263.2872,0.00011804,1.591e-05,0.0,0 STARLINK-4482,1 53530U 22101D   23126.18769925  .00001591  00000-0  11804-3 0  9996,2 53530  53.2197  56.1394 0001437  96.8284 263.2872 15.08840879 39388,6917.878,95.437,540.737,538.749,0.0
53530.0,STARLINK-4482,PAYLOAD,2023-05-07 01:10:17,15.0884836,0.0001198,53.2183,52.2717,107.7676,252.3447,4.7473e-05,4.68e-06,0.0,0 STARLINK-4482,1 53530U 22101D   23127.04881609  .00000468  00000-0  47473-4 0  9990,2 53530  53.2183  52.2717 0001198 107.7676 252.3447 15.08848360 39515,6917.855,95.437,540.549,538.891,0.0
53530.0,STARLINK-4482,PAYLOAD,2023-05-07 04:21:03,15.08854624,0.0001278,53.2184,51.6765,105.5214,254.592,9.2281e-05,1.182e-05,0.0,0 STARLINK-4482,1 53530U 22101D   23127.18128958  .00001182  00000-0  92281-4 0  9997,2 53530  53.2184  51.6765 0001278 105.5214 254.5920 15.08854624 39537,6917.836,95.437,540.585,538.817,0.0
53530.0,STARLINK-4482,PAYLOAD,2023-05-08 01:01:06,15.08830255,0.0001151,53.2189,47.8109,109.7122,250.3994,-9.6433e-05,-1.822e-05,0.0,0 STARLINK-4482,1 53530U 22101D   23128.04243454 -.00001822  00000-0 -96433-4 0  9998,2 53530  53.2189  47.8109 0001151 109.7122 250.3994 15.08830255 39668,6917.91,95.438,540.571,538.979,0.0
53530.0,STARLINK-4482,PAYLOAD,2023-05-08 04:11:52,15.08835341,0.0001176,53.2188,47.2166,104.1342,255.9781,-5.1257e-05,-1.103e-05,0.0,0 STARLINK-4482,1 53530U 22101D   23128.17491086 -.00001103  00000-0 -51257-4 0  9995,2 53530  53.2188  47.2166 0001176 104.1342 255.9781 15.08835341 39682,6917.895,95.438,540.573,538.946,0.0
53530.0,STARLINK-4482,PAYLOAD,2023-05-08 21:41:05,15.08845952,0.0001027,53.2187,43.9475,85.9356,274.1754,7.3697e-05,8.85e-06,0.0,0 STARLINK-4482,1 53530U 22101D   23128.90354162  .00000885  00000-0  73697-4 0  9995,2 53530  53.2187  43.9475 0001027  85.9356 274.1754 15.08845952 39797,6917.862,95.437,540.438,539.017,0.0
53530.0,STARLINK-4482,PAYLOAD,2023-05-09 00:51:52,15.08849393,0.0001257,53.2184,43.3543,70.8851,289.2277,9.2548e-05,1.186e-05,0.0,0 STARLINK-4482,1 53530U 22101D   23129.03601894  .00001186  00000-0  92548-4 0  9998,2 53530  53.2184  43.3543 0001257  70.8851 289.2277 15.08849393 39815,6917.852,95.437,540.586,538.847,0.0
53530.0,STARLINK-4482,PAYLOAD,2023-05-10 00:42:39,15.08841439,0.0001063,53.2187,38.8929,92.4476,267.6637,0.00012238,1.66e-05,0.0,0 STARLINK-4482,1 53530U 22101D   23130.02962351  .00001660  00000-0  12238-3 0  9991,2 53530  53.2187  38.8929 0001063  92.4476 267.6637 15.08841439 39962,6917.876,95.437,540.476,539.006,0.0
53530.0,STARLINK-4482,PAYLOAD,2023-05-11 00:33:26,15.08845507,0.0001208,53.2184,34.436,87.2833,272.8298,2.2283e-05,6.7e-07,0.0,0 STARLINK-4482,1 53530U 22101D   23131.02322518  .00000067  00000-0  22283-4 0  9999,2 53530  53.2184  34.4360 0001208  87.2833 272.8298 15.08845507 40110,6917.864,95.437,540.564,538.893,0.0
53530.0,STARLINK-4482,PAYLOAD,2023-05-12 00:24:14,15.08833848,9.16e-05,53.2176,29.9727,95.1969,264.9128,-3.6366e-05,-8.66e-06,0.0,0 STARLINK-4482,1 53530U 22101D   23132.01683330 -.00000866  00000-0 -36366-4 0  9997,2 53530  53.2176  29.9727 0000916  95.1969 264.9128 15.08833848 40265,6917.899,95.438,540.398,539.131,0.0
53530.0,STARLINK-4482,PAYLOAD,2023-05-12 21:04:13,15.08841276,0.0003003,53.218,26.1071,172.5398,187.5639,0.00032083,4.822e-05,0.0,0 STARLINK-4482,1 53530U 22101D   23132.87793435  .00004822  00000-0  32083-3 0  9994,2 53530  53.2180  26.1071 0003003 172.5398 187.5639 15.08841276 40392,6917.876,95.437,541.819,537.664,0.0
53530.0,STARLINK-4482,PAYLOAD,2023-05-13 00:15:00,15.08849988,9.94e-05,53.2176,25.511,99.0001,261.1104,6.1309e-05,6.88e-06,0.0,0 STARLINK-4482,1 53530U 22101D   23133.01042185  .00000688  00000-0  61309-4 0  9990,2 53530  53.2176  25.5110 0000994  99.0001 261.1104 15.08849988 40411,6917.85,95.437,540.402,539.027,0.0
53530.0,STARLINK-4482,PAYLOAD,2023-05-13 20:55:01,15.08842108,9.73e-05,53.2178,21.6468,107.9987,252.1112,8.4316e-05,1.054e-05,0.0,0 STARLINK-4482,1 53530U 22101D   23133.87154855  .00001054  00000-0  84316-4 0  9993,2 53530  53.2178  21.6468 0000973 107.9987 252.1112 15.08842108 40545,6917.874,95.437,540.412,539.066,0.0
53530.0,STARLINK-4482,PAYLOAD,2023-05-14 01:41:10,15.0885204,0.0001037,53.218,20.7546,106.2565,253.8541,0.00015826,2.233e-05,0.0,0 STARLINK-4482,1 53530U 22101D   23134.07026003  .00002233  00000-0  15826-3 0  9998,2 53530  53.2180  20.7546 0001037 106.2565 253.8541 15.08852040 40574,6917.844,95.437,540.426,538.991,0.0
53530.0,STARLINK-4482,PAYLOAD,2023-05-14 20:45:49,15.0884118,0.0001507,53.2181,17.1854,139.7437,220.3667,-7.1889e-05,-1.432e-05,0.0,0 STARLINK-4482,1 53530U 22101D   23134.86515325 -.00001432  00000-0 -71889-4 0  9999,2 53530  53.2181  17.1854 0001507 139.7437 220.3667 15.08841180 40692,6917.877,95.437,540.784,538.699,0.0
53530.0,STARLINK-4482,PAYLOAD,2023-05-15 09:28:54,15.08839485,0.0001169,53.2183,14.8049,87.1047,273.0079,9.3817e-06,-1.39e-06,0.0,0 STARLINK-4482,1 53530U 22101D   23135.39507328 -.00000139  00000-0  93817-5 0  9990,2 53530  53.2183  14.8049 0001169  87.1047 273.0079 15.08839485 40777,6917.882,95.438,540.556,538.938,0.0
53530.0,STARLINK-4482,PAYLOAD,2023-05-15 22:11:58,15.08847465,0.0001124,53.2183,12.4253,96.8647,263.2473,-1.7168e-05,-5.61e-06,0.0,0 STARLINK-4482,1 53530U 22101D   23135.92498826 -.00000561  00000-0 -17168-4 0  9995,2 53530  53.2183  12.4253 0001124  96.8647 263.2473 15.08847465 40857,6917.858,95.437,540.5,538.945,0.0
53530.0,STARLINK-4482,PAYLOAD,2023-05-16 22:02:46,15.08840481,0.0001088,53.2177,7.9667,83.803,276.3086,4.9614e-05,5.02e-06,0.0,0 STARLINK-4482,1 53530U 22101D   23136.91859153  .00000502  00000-0  49614-4 0  9993,2 53530  53.2177   7.9667 0001088  83.8030 276.3086 15.08840481 41003,6917.879,95.438,540.497,538.991,0.0
53530.0,STARLINK-4482,PAYLOAD,2023-05-17 21:53:33,15.08838167,0.0001171,53.2176,3.5057,88.3889,271.7238,5.2026e-05,5.4e-06,0.0,0 STARLINK-4482,1 53530U 22101D   23137.91219326  .00000540  00000-0  52026-4 0  9999,2 53530  53.2176   3.5057 0001171  88.3889 271.7238 15.08838167 41154,6917.886,95.438,540.561,538.941,0.0
53530.0,STARLINK-4482,PAYLOAD,2023-05-18 01:04:19,15.08838658,0.0001177,53.2176,2.911,88.1873,271.9254,5.4127e-05,5.74e-06,0.0,0 STARLINK-4482,1 53530U 22101D   23138.04467298  .00000574  00000-0  54127-4 0  9998,2 53530  53.2176   2.9110 0001177  88.1873 271.9254 15.08838658 41171,6917.884,95.438,540.564,538.935,0.0
53530.0,STARLINK-4482,PAYLOAD,2023-05-18 13:47:25,15.08823647,0.0001248,53.2167,0.5313,84.0754,276.038,0.0001319,1.811e-05,0.0,0 STARLINK-4482,1 53530U 22101D   23138.57459951  .00001811  00000-0  13190-3 0  9992,2 53530  53.2167   0.5313 0001248  84.0754 276.0380 15.08823647 41259,6917.93,95.439,540.659,538.932,0.0
53530.0,STARLINK-4482,PAYLOAD,2023-05-18 15:22:48,15.0882977,0.0001343,53.2167,0.2339,90.2297,269.8849,4.32e-05,4e-06,0.0,0 STARLINK-4482,1 53530U 22101D   23138.64083986  .00000400  00000-0  43200-4 0  9990,2 53530  53.2167   0.2339 0001343  90.2297 269.8849 15.08829770 41265,6917.912,95.438,540.706,538.848,0.0
53530.0,STARLINK-4482,PAYLOAD,2023-05-18 18:33:34,15.08834796,0.0001212,53.2174,359.6399,89.798,270.3151,1.5587e-05,-4e-07,0.0,0 STARLINK-4482,1 53530U 22101D   23138.77331836 -.00000040  00000-0  15587-4 0  9992,2 53530  53.2174 359.6399 0001212  89.7980 270.3151 15.08834796 41286,6917.896,95.438,540.6,538.923,0.0
